CCSDS_OEM_VERS = 1.0
CREATION_DATE  = 2017-05-11T11:46:44
ORIGINATOR     = GMAT USER

META_START
OBJECT_NAME          = MOPSSat_alt_35785_km_RAAN_180_163
OBJECT_ID            = SatId
CENTER_NAME          = Earth
REF_FRAME            = EME2000
TIME_SYSTEM          = UTC
START_TIME           = 2017-01-01T00:00:00.000
USEABLE_START_TIME   = 2017-01-01T00:00:00.000
USEABLE_STOP_TIME    = 2017-01-02T00:00:00.000
STOP_TIME            = 2017-01-02T00:00:00.000
INTERPOLATION        = Lagrange
INTERPOLATION_DEGREE = 7 
META_STOP


                                                                                   

2017-01-01T23:40:50.000  -1.633993747672777e+04   5.264210147017979e+03  -7.968798283783338e-01  -1.177791072095201e+00  -5.966321353764583e+00   1.789828415476013e-03
2017-01-01T23:41:00.000  -1.635165096226687e+04   5.204526262246479e+03  -7.789783460104388e-01  -1.164901886024683e+00  -5.970448786052964e+00   1.790465882278791e-03
2017-01-01T23:41:10.000  -1.636323543083230e+04   5.144801312997685e+03  -7.610705558527294e-01  -1.151987700133955e+00  -5.974534142449332e+00   1.791089943352769e-03
2017-01-01T23:41:20.000  -1.637469063359478e+04   5.085035720844856e+03  -7.431565921478137e-01  -1.139048743405521e+00  -5.978577228526137e+00   1.791700552229541e-03
2017-01-01T23:41:30.000  -1.638601632400164e+04   5.025229909432493e+03  -7.252365896405369e-01  -1.126085246870077e+00  -5.982577851350465e+00   1.792297662969053e-03
2017-01-01T23:41:40.000  -1.639721225782629e+04   4.965384304284094e+03  -7.073106835197748e-01  -1.113097443555549e+00  -5.986535819518659e+00   1.792881230167432e-03
2017-01-01T23:41:50.000  -1.640827819305347e+04   4.905499333579239e+03  -6.893790096498225e-01  -1.100085568648180e+00  -5.990450943132439e+00   1.793451208957097e-03
2017-01-01T23:42:00.000  -1.641921389006533e+04   4.845575427178516e+03  -6.714417042781374e-01  -1.087049859269989e+00  -5.994323033881933e+00   1.794007555021128e-03
2017-01-01T23:42:10.000  -1.643001911159787e+04   4.785613016964006e+03  -6.534989041364122e-01  -1.073990554543356e+00  -5.998151905047112e+00   1.794550224596509e-03
2017-01-01T23:42:20.000  -1.644069362301067e+04   4.725612535444244e+03  -6.355507460222941e-01  -1.060907895277360e+00  -6.001937371610151e+00   1.795079174493009e-03
2017-01-01T23:42:30.000  -1.645123719205577e+04   4.665574417112968e+03  -6.175973672053422e-01  -1.047802124253138e+00  -6.005679250190314e+00   1.795594362086778e-03
2017-01-01T23:42:40.000  -1.646164958895618e+04   4.605499098121629e+03  -5.996389053281438e-01  -1.034673486142324e+00  -6.009377359088428e+00   1.796095745329669e-03
2017-01-01T23:42:50.000  -1.647193058627209e+04   4.545387017035530e+03  -5.816754986324415e-01  -1.021522227659418e+00  -6.013031518256315e+00   1.796583282747107e-03
2017-01-01T23:43:00.000  -1.648207995903865e+04   4.485238614244339e+03  -5.637072857813233e-01  -1.008348597423875e+00  -6.016641549361860e+00   1.797056933450838e-03
2017-01-01T23:43:10.000  -1.649209748477764e+04   4.425054331942796e+03  -5.457344058530648e-01  -9.951528459436505e-01  -6.020207275809742e+00   1.797516657144265e-03
2017-01-01T23:43:20.000  -1.650198294343731e+04   4.364834614696694e+03  -5.277569985086258e-01  -9.819352257294872e-01  -6.023728522735979e+00   1.797962414125703e-03
2017-01-01T23:43:30.000  -1.651173611752415e+04   4.304579908641124e+03  -5.097752037522678e-01  -9.686959911053026e-01  -6.027205117071420e+00   1.798394165298660e-03
2017-01-01T23:43:40.000  -1.652135679207446e+04   4.244290661770759e+03  -4.917891620173406e-01  -9.554353982600127e-01  -6.030636887547690e+00   1.798811872175751e-03
2017-01-01T23:43:50.000  -1.653084475489070e+04   4.183967322561261e+03  -4.737990137542649e-01  -9.421537049317837e-01  -6.034023664797511e+00   1.799215496894175e-03
2017-01-01T23:44:00.000  -1.654019979634018e+04   4.123610341310899e+03  -4.558048998301920e-01  -9.288511706900816e-01  -6.037365281298871e+00   1.799605002211651e-03
2017-01-01T23:44:10.000  -1.654942170942517e+04   4.063220169815050e+03  -4.378069614310680e-01  -9.155280568512032e-01  -6.040661571415778e+00   1.799980351514595e-03
2017-01-01T23:44:20.000  -1.655851028966265e+04   4.002797262124885e+03  -4.198053402879147e-01  -9.021846266304346e-01  -6.043912371371312e+00   1.800341508816786e-03
2017-01-01T23:44:30.000  -1.656746533520951e+04   3.942342073952259e+03  -4.018001784979394e-01  -8.888211449989062e-01  -6.047117519307625e+00   1.800688438770640e-03
2017-01-01T23:44:40.000  -1.657628664687264e+04   3.881855062648624e+03  -3.837916185179240e-01  -8.754378786642444e-01  -6.050276855305121e+00   1.801021106671872e-03
2017-01-01T23:44:50.000  -1.658497402805887e+04   3.821336687771383e+03  -3.657798033313869e-01  -8.620350961833493e-01  -6.053390221379592e+00   1.801339478463683e-03
2017-01-01T23:45:00.000  -1.659352728488956e+04   3.760787410276719e+03  -3.477648762083880e-01  -8.486130677676563e-01  -6.056457461538676e+00   1.801643520744505e-03
2017-01-01T23:45:10.000  -1.660194622617674e+04   3.700207692809338e+03  -3.297469807909565e-01  -8.351720653328685e-01  -6.059478421788316e+00   1.801933200772052e-03
2017-01-01T23:45:20.000  -1.661023066363060e+04   3.639597998315311e+03  -3.117262606798483e-01  -8.217123621761651e-01  -6.062452950222150e+00   1.802208486475043e-03
2017-01-01T23:45:30.000  -1.661838041168376e+04   3.578958791388407e+03  -2.937028598344588e-01  -8.082342332594311e-01  -6.065380896973204e+00   1.802469346451622e-03
2017-01-01T23:45:40.000  -1.662639528755349e+04   3.518290537941060e+03  -2.756769224742122e-01  -7.947379551208998e-01  -6.068262114250823e+00   1.802715749976158e-03
2017-01-01T23:45:50.000  -1.663427511113521e+04   3.457593705965352e+03  -2.576485933049095e-01  -7.812238060269974e-01  -6.071096456317091e+00   1.802947666999083e-03
2017-01-01T23:46:00.000  -1.664201970511460e+04   3.396868764932741e+03  -2.396180173389139e-01  -7.676920658243181e-01  -6.073883779541164e+00   1.803165068156095e-03
2017-01-01T23:46:10.000  -1.664962889497570e+04   3.336116185771341e+03  -2.215853398881516e-01  -7.541430159175634e-01  -6.076623942416466e+00   1.803367924772163e-03
2017-01-01T23:46:20.000  -1.665710250896112e+04   3.275336441432424e+03  -2.035507067308771e-01  -7.405769393807659e-01  -6.079316805560084e+00   1.803556208866116e-03
2017-01-01T23:46:30.000  -1.666444037816874e+04   3.214530006078513e+03  -1.855142638708814e-01  -7.269941207579131e-01  -6.081962231761600e+00   1.803729893156140e-03
2017-01-01T23:46:40.000  -1.667164233653171e+04   3.153697355378445e+03  -1.674761576243078e-01  -7.133948461120121e-01  -6.084560085989522e+00   1.803888951063719e-03
2017-01-01T23:46:50.000  -1.667870822099881e+04   3.092838965089609e+03  -1.494365341986908e-01  -6.997794026907563e-01  -6.087110235469739e+00   1.804033356721812e-03
2017-01-01T23:47:00.000  -1.668563787138171e+04   3.031955312434924e+03  -1.313955401007900e-01  -6.861480792166569e-01  -6.089612549643765e+00   1.804163084975327e-03
2017-01-01T23:47:10.000  -1.669243113041382e+04   2.971046875719618e+03  -1.133533220223449e-01  -6.725011657836251e-01  -6.092066900203013e+00   1.804278111386525e-03
2017-01-01T23:47:20.000  -1.669908784364047e+04   2.910114135278468e+03  -9.531002712083469e-02  -6.588389540499904e-01  -6.094473161062182e+00   1.804378412235664e-03
2017-01-01T23:47:30.000  -1.670560785953750e+04   2.849157572653329e+03  -7.726580277465192e-02  -6.451617370370027e-01  -6.096831208414656e+00   1.804463964528256e-03
2017-01-01T23:47:40.000  -1.671199102950067e+04   2.788177670748648e+03  -5.922079662885393e-02  -6.314698091448021e-01  -6.099140920741268e+00   1.804534745998257e-03
2017-01-01T23:47:50.000  -1.671823720787472e+04   2.727174913761654e+03  -4.117515657353618e-02  -6.177634661187524e-01  -6.101402178832970e+00   1.804590735113157e-03
2017-01-01T23:48:00.000  -1.672434625196427e+04   2.666149787096830e+03  -2.312903071842327e-02  -6.040430050105748e-01  -6.103614865807032e+00   1.804631911076907e-03
2017-01-01T23:48:10.000  -1.673031802205022e+04   2.605102777320805e+03  -5.082567378995115e-03  -5.903087241490829e-01  -6.105778867124807e+00   1.804658253833767e-03
2017-01-01T23:48:20.000  -1.673615238142811e+04   2.544034371921144e+03   1.296408499548393e-02  -5.765609230667231e-01  -6.107894070617381e+00   1.804669744072481e-03
2017-01-01T23:48:30.000  -1.674184919640069e+04   2.482945059427378e+03   3.101077778638648e-02  -5.627999025068070e-01  -6.109960366494318e+00   1.804666363229084e-03
2017-01-01T23:48:40.000  -1.674740833629122e+04   2.421835329387367e+03   4.905736221321155e-02  -5.490259643983965e-01  -6.111977647359787e+00   1.804648093490441e-03
2017-01-01T23:48:50.000  -1.675282967346335e+04   2.360705672196726e+03   6.710368938415351e-02  -5.352394117974250e-01  -6.113945808230850e+00   1.804614917796899e-03
2017-01-01T23:49:00.000  -1.675811308331680e+04   2.299556579293886e+03   8.514961023909967e-02  -5.214405489106622e-01  -6.115864746546669e+00   1.804566819845989e-03
2017-01-01T23:49:10.000  -1.676325844429794e+04   2.238388543157971e+03   1.031949755507268e-01  -5.076296810747994e-01  -6.117734362182945e+00   1.804503784095650e-03
2017-01-01T23:49:20.000  -1.676826563789702e+04   2.177202057344208e+03   1.212396359140697e-01  -4.938071147433520e-01  -6.119554557461319e+00   1.804425795766353e-03
2017-01-01T23:49:30.000  -1.677313454866547e+04   2.115997616509530e+03   1.392834417398325e-01  -4.799731574721011e-01  -6.121325237165739e+00   1.804332840845141e-03
2017-01-01T23:49:40.000  -1.677786506423658e+04   2.054775716207331e+03   1.573262433150967e-01  -4.661281178514461e-01  -6.123046308559871e+00   1.804224906087679e-03
2017-01-01T23:49:50.000  -1.678245707528709e+04   1.993536853671010e+03   1.753678905733808e-01  -4.522723056630804e-01  -6.124717681382728e+00   1.804101979023774e-03
